COSMOS 2425 (716)       
1 29670U 06062A   21301.10404396  .00000022  00000-0  00000-0 0  9996
2 29670  64.8128 250.9680 0024320 341.7649  60.7183  2.13115008115508
COSMOS 2433 (720)       
1 32275U 07052A   21301.30883602 -.00000067  00000-0  00000-0 0  9994
2 32275  66.0765  12.3770 0004304 224.3430 142.7291  2.13104241109026
COSMOS 2432 (719)       
1 32276U 07052B   21301.36541885 -.00000067  00000-0  00000-0 0  9995
2 32276  66.0900  12.4725 0008540 318.5258  40.8763  2.13103373109015
COSMOS 2434 (721)       
1 32393U 07065A   21301.20785045  .00000020  00000-0  00000-0 0  9998
2 32393  64.4318 249.3623 0000704  92.2356  86.1319  2.13103026107728
COSMOS 2436 (723)       
1 32395U 07065C   21301.32922642  .00000019  00000-0  00000-0 0  9997
2 32395  64.4409 249.4128 0015025 352.5177  54.9958  2.13102857107663
COSMOS 2456 (730)       
1 36111U 09070A   21301.43098142  .00000090  00000-0  00000+0 0  9994
2 36111  64.2988 129.0205 0001988 349.8631 168.4934  2.13099235 92392
COSMOS 2457 (733)       
1 36112U 09070B   21301.31026810  .00000088  00000-0  00000-0 0  9993
2 36112  64.2822 128.9070 0006592 148.5077  42.6877  2.13101478 92394
COSMOS 2459 (731)       
1 36400U 10007A   21301.49246979 -.00000066  00000-0  00000-0 0  9991
2 36400  65.9701  11.2760 0024973 347.4443  20.2162  2.13109439 90749
COSMOS 2461 (735)       
1 36401U 10007B   21301.49558089 -.00000066  00000-0  00000-0 0  9990
2 36401  65.9655  11.2398 0017905   6.1727   1.8706  2.13103523 90754
COSMOS 2460 (732)       
1 36402U 10007C   21300.72177301 -.00000069  00000-0  00000-0 0  9993
2 36402  65.9527  11.2210 0001873 190.5813 249.9795  2.13106385 90737
COSMOS 2464 (736)       
1 37139U 10041C   21301.62945860  .00000016  00000-0  00000+0 0  9992
2 37139  64.0309 248.5382 0027813   6.4587 355.2864  2.13100727 86819
COSMOS 2471 (701K)      
1 37372U 11009A   21300.91536698 -.00000068  00000-0  00000-0 0  9991
2 37372  65.9463  11.1431 0017098 227.6634 129.3615  2.13062256 83008
COSMOS 2476 (744)       
1 37867U 11064A   21301.12344612  .00000086  00000-0  00000-0 0  9997
2 37867  64.5913 130.2960 0019397 231.4305 314.4630  2.13101828 77730
COSMOS 2477 (745)       
1 37868U 11064B   21301.32696138  .00000089  00000-0  00000+0 0  9995
2 37868  64.5985 130.3535 0016917 231.8842 288.4039  2.13101683 77691
COSMOS 2475 (743)       
1 37869U 11064C   21301.44197794  .00000090  00000-0  00000+0 0  9995
2 37869  64.6055 130.3532 0020370 253.8435 312.5214  2.13101970 77703
COSMOS 2485 (747)       
1 39155U 13019A   21301.06798054  .00000086  00000-0  00000-0 0  9997
2 39155  64.7569 130.6759 0020117 227.2235 320.5929  2.13101967 66201
COSMOS 2492 (754)       
1 39620U 14012A   21301.27970598 -.00000067  00000-0  00000-0 0  9996
2 39620  65.8403  10.9168 0011773 316.2960  68.6006  2.13103190 59166
COSMOS 2500 (755)       
1 40001U 14032A   21301.44368473 -.00000067  00000-0  00000-0 0  9995
2 40001  65.7813  10.7883 0008283 201.5998 168.3811  2.13102302 57384
COSMOS 2501 (702K)      
1 40315U 14075A   21300.53712273  .00000021  00000-0  00000-0 0  9999
2 40315  63.7411 249.3334 0018200 213.2281 348.1985  2.13101297 53760
COSMOS 2514 (751)       
1 41330U 16008A   21301.20348821 -.00000068  00000-0  00000-0 0  9996
2 41330  65.5814  10.5469 0011916 210.0789 159.0264  2.13102776 44545
COSMOS 2516 (753)       
1 41554U 16032A   21301.55932534  .00000017  00000-0  00000+0 0  9991
2 41554  63.9665 249.5084 0014936 222.4973 317.7965  2.13107094 42157
COSMOS 2522 (752)       
1 42939U 17055A   21301.09822042  .00000020  00000-0  00000-0 0  9991
2 42939  64.2002 249.8518 0009274 249.2720 157.7660  2.13101981 31909
COSMOS 2527 (756)       
1 43508U 18053A   21301.15067853  .00000087  00000-0  00000-0 0  9994
2 43508  64.9186 130.6256 0006779 214.0293 265.3789  2.13102518 26190
COSMOS 2529 (757)       
1 43687U 18086A   21301.32817068  .00000020  00000-0  00000-0 0  9995
2 43687  64.4153 250.0977 0011401 269.0492 269.9550  2.13102088 23211
COSMOS 2534 (758)       
1 44299U 19030A   21301.16594626  .00000021  00000-0  00000-0 0  9990
2 44299  64.4860 249.9657 0014363 286.1187 263.1765  2.13101842 18854
COSMOS 2544 (759)       
1 44850U 19088A   21301.40640542  .00000090  00000-0  00000-0 0  9998
2 44850  64.9052 130.4731 0009959 255.2565 103.9804  2.13102287 14624
COSMOS 2545 (760)       
1 45358U 20018A   21301.25358861 -.00000069  00000-0  00000+0 0  9996
2 45358  64.9171  11.3446 0010264 239.4119 212.4196  2.13102635 12580
